[
    {
        "Altitude(m)": 605459.0073889461,
        "Argument of Periapsis(deg)": 0.0,
        "Eccentricity": 0.0,
        "Inclination(deg)": 60.0,
        "Latitude(deg)": 27.98814448846785,
        "Longitude(deg)": -117.20138665310543,
        "Mean Anomaly(deg)": 32.72730000000001,
        "RAAN(deg)": 325.0,
        "Satellite Name": "Test1 1432",
        "Satellite Number": 1432,
        "Semi-Major Axis(m)": 6980739.136638005,
        "Time(s)": 0
    },
    {
        "Altitude(m)": 605535.7980471842,
        "Argument of Periapsis(deg)": 0.00010418945913296404,
        "Eccentricity": 0.0,
        "Inclination(deg)": 60.0,
        "Latitude(deg)": 28.501273667099703,
        "Longitude(deg)": -116.84444118860688,
        "Mean Anomaly(deg)": 33.34740614546182,
        "RAAN(deg)": 324.99957995086027,
        "Satellite Name": "Test1 1432",
        "Satellite Number": 1432,
        "Semi-Major Axis(m)": 6980739.136638005,
        "Time(s)": 10
    }
]